IRIDIUM 144             
1 43249U 18030A   25330.13443796  .00000313  00000+0  10454-3 0  9997
2 43249  86.3986  15.2880 0002185  98.5554 261.5889 14.34220663401038
IRIDIUM 149             
1 43250U 18030B   25330.14077294  .00000236  00000+0  77218-4 0  9992
2 43250  86.3985  15.2545 0002143  96.9116 263.2323 14.34216127401051
IRIDIUM 157             
1 43251U 18030C   25330.15980815  .00000298  00000+0  99273-4 0  9999
2 43251  86.3986  15.2952 0002366  92.1305 268.0161 14.34218374401037
IRIDIUM 140             
1 43252U 18030D   25330.17884319  .00000321  00000+0  10748-3 0  9990
2 43252  86.3987  15.3005 0002085  97.7727 262.3706 14.34219709401097
IRIDIUM 145             
1 43253U 18030E   25330.16615256  .00000316  00000+0  10594-3 0  9995
2 43253  86.3985  15.2784 0002218 105.5365 254.6076 14.34220654401021
IRIDIUM 146             
1 43254U 18030F   25330.14712227  .00000149  00000+0  46112-4 0  9990
2 43254  86.3985  15.2992 0002227  99.9851 260.1596 14.34217734401034
IRIDIUM 148             
1 43255U 18030G   25330.18518021  .00000313  00000+0  10475-3 0  9996
2 43255  86.3987  15.3233 0002302  94.6950 265.4508 14.34220425401078
IRIDIUM 142             
1 43256U 18030H   25330.15346668  .00000269  00000+0  89021-4 0  9994
2 43256  86.3982  15.2329 0002299 105.9317 254.2132 14.34220512401039
